[{"OBJECT_NAME":"INSAT-2D","OBJECT_ID":"1997-027B","EPOCH":"2026-03-05T03:41:38.852160","MEAN_MOTION":1.04791626,"ECCENTRICITY":0.03331186,"INCLINATION":12.7505,"RA_OF_ASC_NODE":346.3386,"ARG_OF_PERICENTER":126.4408,"MEAN_ANOMALY":228.8091,"EPHEMERIS_TYPE":0,"CLASSIFICATION_TYPE":"U","NORAD_CAT_ID":24820,"ELEMENT_SET_NO":999,"REV_AT_EPOCH":4840,"BSTAR":0,"MEAN_MOTION_DOT":-1.82e-6,"MEAN_MOTION_DDOT":0},{"OBJECT_NAME":"PAS 6","OBJECT_ID":"1997-040A","EPOCH":"2026-03-04T10:13:38.563392","MEAN_MOTION":0.93698029,"ECCENTRICITY":0.0681774,"INCLINATION":9.0281,"RA_OF_ASC_NODE":328.7657,"ARG_OF_PERICENTER":252.0245,"MEAN_ANOMALY":299.342,"EPHEMERIS_TYPE":0,"CLASSIFICATION_TYPE":"U","NORAD_CAT_ID":24891,"ELEMENT_SET_NO":999,"REV_AT_EPOCH":7592,"BSTAR":0,"MEAN_MOTION_DOT":-2.01e-6,"MEAN_MOTION_DDOT":0},{"OBJECT_NAME":"COSMOS 2345","OBJECT_ID":"1997-041A","EPOCH":"2026-03-05T00:49:38.500032","MEAN_MOTION":1.00310944,"ECCENTRICITY":0.01656799,"INCLINATION":14.3955,"RA_OF_ASC_NODE":358.5572,"ARG_OF_PERICENTER":297.6371,"MEAN_ANOMALY":58.9725,"EPHEMERIS_TYPE":0,"CLASSIFICATION_TYPE":"U","NORAD_CAT_ID":24894,"ELEMENT_SET_NO":999,"REV_AT_EPOCH":10460,"BSTAR":0,"MEAN_MOTION_DOT":-5.4e-7,"MEAN_MOTION_DDOT":0},{"OBJECT_NAME":"SL-12 R/B(2)","OBJECT_ID":"1997-041D","EPOCH":"2026-03-05T00:09:38.695968","MEAN_MOTION":1.00006493,"ECCENTRICITY":0.03589646,"INCLINATION":14.5048,"RA_OF_ASC_NODE":358.9225,"ARG_OF_PERICENTER":299.2669,"MEAN_ANOMALY":250.3306,"EPHEMERIS_TYPE":0,"CLASSIFICATION_TYPE":"U","NORAD_CAT_ID":24897,"ELEMENT_SET_NO":999,"REV_AT_EPOCH":10431,"BSTAR":0,"MEAN_MOTION_DOT":4.0e-8,"MEAN_MOTION_DDOT":0},{"OBJECT_NAME":"SL-12 R/B(2)","OBJECT_ID":"1997-046D","EPOCH":"2026-03-05T01:40:36.840576","MEAN_MOTION":1.79818108,"ECCENTRICITY":0.48220836,"INCLINATION":12.8244,"RA_OF_ASC_NODE":126.7141,"ARG_OF_PERICENTER":352.2825,"MEAN_ANOMALY":357.3934,"EPHEMERIS_TYPE":0,"CLASSIFICATION_TYPE":"U","NORAD_CAT_ID":24919,"ELEMENT_SET_NO":999,"REV_AT_EPOCH":18726,"BSTAR":0,"MEAN_MOTION_DOT":-8.2e-7,"MEAN_MOTION_DDOT":0},{"OBJECT_NAME":"AMC-3","OBJECT_ID":"1997-050A","EPOCH":"2026-03-03T23:54:38.515968","MEAN_MOTION":1.00271818,"ECCENTRICITY":0.00034833,"INCLINATION":7.8887,"RA_OF_ASC_NODE":65.2783,"ARG_OF_PERICENTER":287.8217,"MEAN_ANOMALY":95.3034,"EPHEMERIS_TYPE":0,"CLASSIFICATION_TYPE":"U","NORAD_CAT_ID":24936,"ELEMENT_SET_NO":999,"REV_AT_EPOCH":5138,"BSTAR":0,"MEAN_MOTION_DOT":-2.71e-6,"MEAN_MOTION_DDOT":0},{"OBJECT_NAME":"ATLAS 2AS CENTAUR R/B","OBJECT_ID":"1997-050B","EPOCH":"2026-03-04T21:09:46.408032","MEAN_MOTION":2.24965875,"ECCENTRICITY":0.72771891,"INCLINATION":19.2533,"RA_OF_ASC_NODE":349.8853,"ARG_OF_PERICENTER":255.4321,"MEAN_ANOMALY":20.5565,"EPHEMERIS_TYPE":0,"CLASSIFICATION_TYPE":"U","NORAD_CAT_ID":24937,"ELEMENT_SET_NO":999,"REV_AT_EPOCH":21270,"BSTAR":0.00073036865,"MEAN_MOTION_DOT":6.37e-6,"MEAN_MOTION_DDOT":0},{"OBJECT_NAME":"TITAN 3C TRANSTAGE DEB","OBJECT_ID":"1968-081G","EPOCH":"2026-03-05T05:43:05.420352","MEAN_MOTION":1.01037674,"ECCENTRICITY":0.01147882,"INCLINATION":1.7112,"RA_OF_ASC_NODE":40.6149,"ARG_OF_PERICENTER":290.315,"MEAN_ANOMALY":338.2646,"EPHEMERIS_TYPE":0,"CLASSIFICATION_TYPE":"U","NORAD_CAT_ID":25000,"ELEMENT_SET_NO":999,"REV_AT_EPOCH":12426,"BSTAR":0,"MEAN_MOTION_DOT":-1.36e-6,"MEAN_MOTION_DDOT":0},{"OBJECT_NAME":"TITAN 3C TRANSTAGE DEB","OBJECT_ID":"1968-081H","EPOCH":"2026-03-05T06:32:00.728160","MEAN_MOTION":1.01694933,"ECCENTRICITY":0.00687646,"INCLINATION":1.8157,"RA_OF_ASC_NODE":50.4901,"ARG_OF_PERICENTER":349.3152,"MEAN_ANOMALY":90.3517,"EPHEMERIS_TYPE":0,"CLASSIFICATION_TYPE":"U","NORAD_CAT_ID":25001,"ELEMENT_SET_NO":999,"REV_AT_EPOCH":11726,"BSTAR":0,"MEAN_MOTION_DOT":-1.21e-6,"MEAN_MOTION_DDOT":0},{"OBJECT_NAME":"USA 134","OBJECT_ID":"1997-065A","EPOCH":"2026-03-04T09:57:38.664576","MEAN_MOTION":1.00271226,"ECCENTRICITY":0.0006985,"INCLINATION":12.6603,"RA_OF_ASC_NODE":22.4983,"ARG_OF_PERICENTER":307.0105,"MEAN_ANOMALY":229.9566,"EPHEMERIS_TYPE":0,"CLASSIFICATION_TYPE":"U","NORAD_CAT_ID":25019,"ELEMENT_SET_NO":999,"REV_AT_EPOCH":3190,"BSTAR":0,"MEAN_MOTION_DOT":-7.0e-7,"MEAN_MOTION_DDOT":0},{"OBJECT_NAME":"IABS R/B","OBJECT_ID":"1997-065C","EPOCH":"2026-03-03T22:49:46.263360","MEAN_MOTION":1.01054256,"ECCENTRICITY":0.0044793,"INCLINATION":14.1966,"RA_OF_ASC_NODE":352.9382,"ARG_OF_PERICENTER":205.7073,"MEAN_ANOMALY":347.3475,"EPHEMERIS_TYPE":0,"CLASSIFICATION_TYPE":"U","NORAD_CAT_ID":25021,"ELEMENT_SET_NO":999,"REV_AT_EPOCH":10543,"BSTAR":0,"MEAN_MOTION_DOT":2.0e-8,"MEAN_MOTION_DDOT":0},{"OBJECT_NAME":"KUPON","OBJECT_ID":"1997-070A","EPOCH":"2026-03-04T06:48:58.452768","MEAN_MOTION":1.00287908,"ECCENTRICITY":0.00058294,"INCLINATION":14.5604,"RA_OF_ASC_NODE":355.4317,"ARG_OF_PERICENTER":307.5681,"MEAN_ANOMALY":52.3832,"EPHEMERIS_TYPE":0,"CLASSIFICATION_TYPE":"U","NORAD_CAT_ID":25045,"ELEMENT_SET_NO":999,"REV_AT_EPOCH":10359,"BSTAR":0,"MEAN_MOTION_DOT":-2.66e-6,"MEAN_MOTION_DDOT":0},{"OBJECT_NAME":"SL-12 R/B(2)","OBJECT_ID":"1997-070D","EPOCH":"2026-03-04T16:51:38.624832","MEAN_MOTION":0.99640211,"ECCENTRICITY":0.00136795,"INCLINATION":14.7465,"RA_OF_ASC_NODE":355.0449,"ARG_OF_PERICENTER":165.5225,"MEAN_ANOMALY":26.9086,"EPHEMERIS_TYPE":0,"CLASSIFICATION_TYPE":"U","NORAD_CAT_ID":25048,"ELEMENT_SET_NO":999,"REV_AT_EPOCH":10298,"BSTAR":0,"MEAN_MOTION_DOT":-3.58e-6,"MEAN_MOTION_DDOT":0},{"OBJECT_NAME":"INDOSTAR 1","OBJECT_ID":"1997-071B","EPOCH":"2026-03-05T01:07:38.697888","MEAN_MOTION":1.00267906,"ECCENTRICITY":0.00049142,"INCLINATION":12.8375,"RA_OF_ASC_NODE":20.8094,"ARG_OF_PERICENTER":299.4654,"MEAN_ANOMALY":250.0408,"EPHEMERIS_TYPE":0,"CLASSIFICATION_TYPE":"U","NORAD_CAT_ID":25050,"ELEMENT_SET_NO":999,"REV_AT_EPOCH":10375,"BSTAR":0,"MEAN_MOTION_DOT":1.23e-6,"MEAN_MOTION_DDOT":0},{"OBJECT_NAME":"EQUATOR S","OBJECT_ID":"1997-075B","EPOCH":"2026-03-04T08:11:37.249440","MEAN_MOTION":1.07776289,"ECCENTRICITY":0.8245828,"INCLINATION":5.3259,"RA_OF_ASC_NODE":262.6921,"ARG_OF_PERICENTER":322.2745,"MEAN_ANOMALY":1.7466,"EPHEMERIS_TYPE":0,"CLASSIFICATION_TYPE":"U","NORAD_CAT_ID":25068,"ELEMENT_SET_NO":999,"REV_AT_EPOCH":11133,"BSTAR":0.0031337837,"MEAN_MOTION_DOT":-2.37e-6,"MEAN_MOTION_DDOT":0},{"OBJECT_NAME":"SL-12 R/B(2)","OBJECT_ID":"1997-076D","EPOCH":"2026-03-05T02:47:15.338400","MEAN_MOTION":1.71947009,"ECCENTRICITY":0.43650325,"INCLINATION":13.8103,"RA_OF_ASC_NODE":22.6862,"ARG_OF_PERICENTER":33.4946,"MEAN_ANOMALY":23.8844,"EPHEMERIS_TYPE":0,"CLASSIFICATION_TYPE":"U","NORAD_CAT_ID":25074,"ELEMENT_SET_NO":999,"REV_AT_EPOCH":17741,"BSTAR":0,"MEAN_MOTION_DOT":-1.14e-6,"MEAN_MOTION_DDOT":0},{"OBJECT_NAME":"GALAXY 8 (G-8)","OBJECT_ID":"1997-078A","EPOCH":"2026-03-04T23:37:06.849984","MEAN_MOTION":0.99694822,"ECCENTRICITY":0.00068172,"INCLINATION":13.9808,"RA_OF_ASC_NODE":10.6663,"ARG_OF_PERICENTER":18.3165,"MEAN_ANOMALY":215.902,"EPHEMERIS_TYPE":0,"CLASSIFICATION_TYPE":"U","NORAD_CAT_ID":25086,"ELEMENT_SET_NO":999,"REV_AT_EPOCH":10290,"BSTAR":0,"MEAN_MOTION_DOT":-1.12e-6,"MEAN_MOTION_DDOT":0},{"OBJECT_NAME":"INTELSAT 804 (IS-804)","OBJECT_ID":"1997-083A","EPOCH":"2026-03-03T07:43:51.403872","MEAN_MOTION":1.00259973,"ECCENTRICITY":0.00087581,"INCLINATION":13.0446,"RA_OF_ASC_NODE":18.4142,"ARG_OF_PERICENTER":8.8875,"MEAN_ANOMALY":57.7063,"EPHEMERIS_TYPE":0,"CLASSIFICATION_TYPE":"U","NORAD_CAT_ID":25110,"ELEMENT_SET_NO":999,"REV_AT_EPOCH":10327,"BSTAR":0,"MEAN_MOTION_DOT":-7.3e-7,"MEAN_MOTION_DDOT":0},{"OBJECT_NAME":"HGS 1 (ASIASAT 3)","OBJECT_ID":"1997-086A","EPOCH":"2026-03-05T05:14:38.146848","MEAN_MOTION":1.00309738,"ECCENTRICITY":0.00482589,"INCLINATION":13.0019,"RA_OF_ASC_NODE":32.7097,"ARG_OF_PERICENTER":42.1752,"MEAN_ANOMALY":124.8125,"EPHEMERIS_TYPE":0,"CLASSIFICATION_TYPE":"U","NORAD_CAT_ID":25126,"ELEMENT_SET_NO":999,"REV_AT_EPOCH":10409,"BSTAR":0,"MEAN_MOTION_DOT":-2.81e-6,"MEAN_MOTION_DDOT":0},{"OBJECT_NAME":"DELTA 2 R/B(2)","OBJECT_ID":"1998-002C","EPOCH":"2026-03-04T20:52:55.018272","MEAN_MOTION":2.19860981,"ECCENTRICITY":0.69544687,"INCLINATION":23.1533,"RA_OF_ASC_NODE":134.5315,"ARG_OF_PERICENTER":235.8002,"MEAN_ANOMALY":304.8398,"EPHEMERIS_TYPE":0,"CLASSIFICATION_TYPE":"U","NORAD_CAT_ID":25136,"ELEMENT_SET_NO":999,"REV_AT_EPOCH":22611,"BSTAR":0,"MEAN_MOTION_DOT":-1.51e-6,"MEAN_MOTION_DDOT":0},{"OBJECT_NAME":"ATLAS 2A R/B","OBJECT_ID":"1998-005B","EPOCH":"2026-03-02T05:11:02.735232","MEAN_MOTION":2.06882225,"ECCENTRICITY":0.6798707,"INCLINATION":62.1166,"RA_OF_ASC_NODE":190.1989,"ARG_OF_PERICENTER":280.5154,"MEAN_ANOMALY":14.8721,"EPHEMERIS_TYPE":0,"CLASSIFICATION_TYPE":"U","NORAD_CAT_ID":25149,"ELEMENT_SET_NO":999,"REV_AT_EPOCH":4977,"BSTAR":0,"MEAN_MOTION_DOT":4.93e-6,"MEAN_MOTION_DDOT":0},{"OBJECT_NAME":"INMARSAT 3-F5","OBJECT_ID":"1998-006B","EPOCH":"2026-03-04T10:13:29.882784","MEAN_MOTION":1.00267995,"ECCENTRICITY":0.00053912,"INCLINATION":9.4599,"RA_OF_ASC_NODE":54.2851,"ARG_OF_PERICENTER":296.0321,"MEAN_ANOMALY":271.1771,"EPHEMERIS_TYPE":0,"CLASSIFICATION_TYPE":"U","NORAD_CAT_ID":25153,"ELEMENT_SET_NO":999,"REV_AT_EPOCH":10284,"BSTAR":0,"MEAN_MOTION_DOT":-2.98e-6,"MEAN_MOTION_DDOT":0},{"OBJECT_NAME":"UFO 8 (USA 138)","OBJECT_ID":"1998-016A","EPOCH":"2026-03-05T04:26:50.231040","MEAN_MOTION":1.00286996,"ECCENTRICITY":0.00080637,"INCLINATION":11.0052,"RA_OF_ASC_NODE":23.3857,"ARG_OF_PERICENTER":271.9594,"MEAN_ANOMALY":85.4614,"EPHEMERIS_TYPE":0,"CLASSIFICATION_TYPE":"U","NORAD_CAT_ID":25258,"ELEMENT_SET_NO":999,"REV_AT_EPOCH":10281,"BSTAR":0,"MEAN_MOTION_DOT":-2.08e-6,"MEAN_MOTION_DDOT":0},{"OBJECT_NAME":"COSMOS 2350","OBJECT_ID":"1998-025A","EPOCH":"2026-03-04T21:02:12.158304","MEAN_MOTION":1.0028457,"ECCENTRICITY":0.00046657,"INCLINATION":13.925,"RA_OF_ASC_NODE":4.6057,"ARG_OF_PERICENTER":195.0871,"MEAN_ANOMALY":350.6109,"EPHEMERIS_TYPE":0,"CLASSIFICATION_TYPE":"U","NORAD_CAT_ID":25315,"ELEMENT_SET_NO":999,"REV_AT_EPOCH":10196,"BSTAR":0,"MEAN_MOTION_DOT":-9.1e-7,"MEAN_MOTION_DDOT":0}]
